{
  "type": "FeatureCollection",
  "features": [
    {
      "type": "Feature",
      "feature_type": "fixture",
      "id": "c4b5d07f-c6c8-5356-8681-f128d9528769",
      "geometry": {
        "type": "Polygon",
        "coordinates": [
          [
            [
              -3.201363734651103,
              55.94628139345597
            ],
            [
              -3.2013412757131863,
              55.94628139345597
            ],
            [
              -3.2013412757131863,
              55.94628862842983
            ],
            [
              -3.201363734651103,
              55.94628862842983
            ],
            [
              -3.201363734651103,
              55.94628139345597
            ]
          ]
        ]
      },
      "properties": {
        "unit_id": "858f880d-048b-5dd4-b4b3-02c54cee5356",
        "level_id": "b174c278-cd7e-43cf-b72f-95121b2c29fb",
        "name": {
          "en": "EGW-01"
        },
        "alt_name": null,
        "category": "desk",
        "labels": [
          {
            "value": "EGW-01",
            "type": "fixture_name"
          }
        ],
        "accessibility": null
      }
    },
    {
      "type": "Feature",
      "feature_type": "fixture",
      "id": "8b8b44d4-aad3-5431-909a-21da0cdddf0c",
      "geometry": {
        "type": "Polygon",
        "coordinates": [
          [
            [
              -3.201235397863006,
              55.94628139345597
            ],
            [
              -3.2012129389250896,
              55.94628139345597
            ],
            [
              -3.2012129389250896,
              55.94628862842983
            ],
            [
              -3.201235397863006,
              55.94628862842983
            ],
            [
              -3.201235397863006,
              55.94628139345597
            ]
          ]
        ]
      },
      "properties": {
        "unit_id": "44d5bff5-c503-5e7d-b53f-d4b7c9127b4d",
        "level_id": "b174c278-cd7e-43cf-b72f-95121b2c29fb",
        "name": {
          "en": "EGW-02"
        },
        "alt_name": null,
        "category": "desk",
        "labels": [
          {
            "value": "EGW-02",
            "type": "fixture_name"
          }
        ],
        "accessibility": null
      }
    },
    {
      "type": "Feature",
      "feature_type": "fixture",
      "id": "8008e485-1130-54d1-830a-bfbf3264a25e",
      "geometry": {
        "type": "Polygon",
        "coordinates": [
          [
            [
              -3.20110706107491,
              55.94628139345597
            ],
            [
              -3.201084602136993,
              55.94628139345597
            ],
            [
              -3.201084602136993,
              55.94628862842983
            ],
            [
              -3.20110706107491,
              55.94628862842983
            ],
            [
              -3.20110706107491,
              55.94628139345597
            ]
          ]
        ]
      },
      "properties": {
        "unit_id": "94d583bb-97d1-5e53-baaf-941c3a2fcfd2",
        "level_id": "b174c278-cd7e-43cf-b72f-95121b2c29fb",
        "name": {
          "en": "EGW-03"
        },
        "alt_name": null,
        "category": "desk",
        "labels": [
          {
            "value": "EGW-03",
            "type": "fixture_name"
          }
        ],
        "accessibility": null
      }
    },
    {
      "type": "Feature",
      "feature_type": "fixture",
      "id": "90438076-052e-54a8-8bdf-395fcb5f0199",
      "geometry": {
        "type": "Polygon",
        "coordinates": [
          [
            [
              -3.2009787242868133,
              55.94628139345597
            ],
            [
              -3.2009562653488963,
              55.94628139345597
            ],
            [
              -3.2009562653488963,
              55.94628862842983
            ],
            [
              -3.2009787242868133,
              55.94628862842983
            ],
            [
              -3.2009787242868133,
              55.94628139345597
            ]
          ]
        ]
      },
      "properties": {
        "unit_id": "9b9b1022-4840-5c73-9453-c5f00a9739b2",
        "level_id": "b174c278-cd7e-43cf-b72f-95121b2c29fb",
        "name": {
          "en": "EGW-04"
        },
        "alt_name": null,
        "category": "desk",
        "labels": [
          {
            "value": "EGW-04",
            "type": "fixture_name"
          }
        ],
        "accessibility": null
      }
    },
    {
      "type": "Feature",
      "feature_type": "fixture",
      "id": "8593c505-d650-5b5e-9713-c1c5b8e9e6d2",
      "geometry": {
        "type": "Polygon",
        "coordinates": [
          [
            [
              -3.201363734651103,
              55.94630671586449
            ],
            [
              -3.2013412757131863,
              55.94630671586449
            ],
            [
              -3.2013412757131863,
              55.94631395083835
            ],
            [
              -3.201363734651103,
              55.94631395083835
            ],
            [
              -3.201363734651103,
              55.94630671586449
            ]
          ]
        ]
      },
      "properties": {
        "unit_id": "ac6ec52c-683d-5494-a4d5-ce8d4296db57",
        "level_id": "b174c278-cd7e-43cf-b72f-95121b2c29fb",
        "name": {
          "en": "EGW-05"
        },
        "alt_name": null,
        "category": "desk",
        "labels": [
          {
            "value": "EGW-05",
            "type": "fixture_name"
          }
        ],
        "accessibility": null
      }
    },
    {
      "type": "Feature",
      "feature_type": "fixture",
      "id": "ebe13604-76b3-5f12-8929-a8e3583af705",
      "geometry": {
        "type": "Polygon",
        "coordinates": [
          [
            [
              -3.2014279030451513,
              55.94617106010455
            ],
            [
              -3.2014054441072344,
              55.94617106010455
            ],
            [
              -3.2014054441072344,
              55.94617829507841
            ],
            [
              -3.2014279030451513,
              55.94617829507841
            ],
            [
              -3.2014279030451513,
              55.94617106010455
            ]
          ]
        ]
      },
      "properties": {
        "unit_id": "7df76758-bc5f-5064-ad05-9ad67b4bfd4e",
        "level_id": "b174c278-cd7e-43cf-b72f-95121b2c29fb",
        "name": {
          "en": "EGQ-01"
        },
        "alt_name": null,
        "category": "desk",
        "labels": [
          {
            "value": "EGQ-01",
            "type": "fixture_name"
          }
        ],
        "accessibility": null
      }
    },
    {
      "type": "Feature",
      "feature_type": "fixture",
      "id": "d4eb92d3-6c20-5cdd-be7c-717f4c48282a",
      "geometry": {
        "type": "Polygon",
        "coordinates": [
          [
            [
              -3.201363734651103,
              55.94617106010455
            ],
            [
              -3.2013412757131863,
              55.94617106010455
            ],
            [
              -3.2013412757131863,
              55.94617829507841
            ],
            [
              -3.201363734651103,
              55.94617829507841
            ],
            [
              -3.201363734651103,
              55.94617106010455
            ]
          ]
        ]
      },
      "properties": {
        "unit_id": "4d26bbd0-a777-5efc-bbfb-3f036ca9311d",
        "level_id": "b174c278-cd7e-43cf-b72f-95121b2c29fb",
        "name": {
          "en": "EGQ-02"
        },
        "alt_name": null,
        "category": "desk",
        "labels": [
          {
            "value": "EGQ-02",
            "type": "fixture_name"
          }
        ],
        "accessibility": null
      }
    },
    {
      "type": "Feature",
      "feature_type": "fixture",
      "id": "d8cfc613-a2d8-5583-b991-312eb2c1586a",
      "geometry": {
        "type": "Polygon",
        "coordinates": [
          [
            [
              -3.2012995662570547,
              55.94617106010455
            ],
            [
              -3.2012771073191377,
              55.94617106010455
            ],
            [
              -3.2012771073191377,
              55.94617829507841
            ],
            [
              -3.2012995662570547,
              55.94617829507841
            ],
            [
              -3.2012995662570547,
              55.94617106010455
            ]
          ]
        ]
      },
      "properties": {
        "unit_id": "54767c43-6b96-52cd-aa15-0df6b192f1ff",
        "level_id": "b174c278-cd7e-43cf-b72f-95121b2c29fb",
        "name": {
          "en": "EGQ-03"
        },
        "alt_name": null,
        "category": "desk",
        "labels": [
          {
            "value": "EGQ-03",
            "type": "fixture_name"
          }
        ],
        "accessibility": null
      }
    },
    {
      "type": "Feature",
      "feature_type": "fixture",
      "id": "630c7135-f11a-5926-9721-56c58b3f7ab1",
      "geometry": {
        "type": "Polygon",
        "coordinates": [
          [
            [
              -3.201235397863006,
              55.94617106010455
            ],
            [
              -3.2012129389250896,
              55.94617106010455
            ],
            [
              -3.2012129389250896,
              55.94617829507841
            ],
            [
              -3.201235397863006,
              55.94617829507841
            ],
            [
              -3.201235397863006,
              55.94617106010455
            ]
          ]
        ]
      },
      "properties": {
        "unit_id": "362a8bde-6269-52e3-949b-a88fe13be676",
        "level_id": "b174c278-cd7e-43cf-b72f-95121b2c29fb",
        "name": {
          "en": "EGQ-04"
        },
        "alt_name": null,
        "category": "desk",
        "labels": [
          {
            "value": "EGQ-04",
            "type": "fixture_name"
          }
        ],
        "accessibility": null
      }
    },
    {
      "type": "Feature",
      "feature_type": "fixture",
      "id": "6ad6b78f-0044-5879-a1c3-9e2464bec14e",
      "geometry": {
        "type": "Polygon",
        "coordinates": [
          [
            [
              -3.2014279030451513,
              55.946213565575995
            ],
            [
              -3.2014054441072344,
              55.946213565575995
            ],
            [
              -3.2014054441072344,
              55.94622080054986
            ],
            [
              -3.2014279030451513,
              55.94622080054986
            ],
            [
              -3.2014279030451513,
              55.946213565575995
            ]
          ]
        ]
      },
      "properties": {
        "unit_id": "ef4b62e0-79ab-5e2d-8f93-495e0ef4e548",
        "level_id": "b174c278-cd7e-43cf-b72f-95121b2c29fb",
        "name": {
          "en": "EGQ-05"
        },
        "alt_name": null,
        "category": "desk",
        "labels": [
          {
            "value": "EGQ-05",
            "type": "fixture_name"
          }
        ],
        "accessibility": null
      }
    },
    {
      "type": "Feature",
      "feature_type": "fixture",
      "id": "2466b7f4-c963-5027-9b1b-c06ba9bc54df",
      "geometry": {
        "type": "Polygon",
        "coordinates": [
          [
            [
              -3.20110706107491,
              55.94617106010455
            ],
            [
              -3.201084602136993,
              55.94617106010455
            ],
            [
              -3.201084602136993,
              55.94617829507841
            ],
            [
              -3.20110706107491,
              55.94617829507841
            ],
            [
              -3.20110706107491,
              55.94617106010455
            ]
          ]
        ]
      },
      "properties": {
        "unit_id": "3f0e63e5-4c4d-5346-b0f7-8c66d0b49d2e",
        "level_id": "b174c278-cd7e-43cf-b72f-95121b2c29fb",
        "name": {
          "en": "EGC-01"
        },
        "alt_name": null,
        "category": "desk",
        "labels": [
          {
            "value": "EGC-01",
            "type": "fixture_name"
          }
        ],
        "accessibility": null
      }
    },
    {
      "type": "Feature",
      "feature_type": "fixture",
      "id": "66950130-46d9-5503-872b-0847000b4d29",
      "geometry": {
        "type": "Polygon",
        "coordinates": [
          [
            [
              -3.2010428926808614,
              55.94617106010455
            ],
            [
              -3.2010204337429444,
              55.94617106010455
            ],
            [
              -3.2010204337429444,
              55.94617829507841
            ],
            [
              -3.2010428926808614,
              55.94617829507841
            ],
            [
              -3.2010428926808614,
              55.94617106010455
            ]
          ]
        ]
      },
      "properties": {
        "unit_id": "f9f99102-b519-5eea-95c9-c2e5ffc06aaa",
        "level_id": "b174c278-cd7e-43cf-b72f-95121b2c29fb",
        "name": {
          "en": "EGC-02"
        },
        "alt_name": null,
        "category": "desk",
        "labels": [
          {
            "value": "EGC-02",
            "type": "fixture_name"
          }
        ],
        "accessibility": null
      }
    },
    {
      "type": "Feature",
      "feature_type": "fixture",
      "id": "1226e31e-7f63-5a25-b829-af3fb9a826d6",
      "geometry": {
        "type": "Polygon",
        "coordinates": [
          [
            [
              -3.2009787242868133,
              55.94617106010455
            ],
            [
              -3.2009562653488963,
              55.94617106010455
            ],
            [
              -3.2009562653488963,
              55.94617829507841
            ],
            [
              -3.2009787242868133,
              55.94617829507841
            ],
            [
              -3.2009787242868133,
              55.94617106010455
            ]
          ]
        ]
      },
      "properties": {
        "unit_id": "1b7b2e50-f1e1-5afd-b16a-f8ff9b7b117c",
        "level_id": "b174c278-cd7e-43cf-b72f-95121b2c29fb",
        "name": {
          "en": "EGC-03"
        },
        "alt_name": null,
        "category": "desk",
        "labels": [
          {
            "value": "EGC-03",
            "type": "fixture_name"
          }
        ],
        "accessibility": null
      }
    },
    {
      "type": "Feature",
      "feature_type": "fixture",
      "id": "6321f019-09be-5067-b534-357d281dee38",
      "geometry": {
        "type": "Polygon",
        "coordinates": [
          [
            [
              -3.2009145558927647,
              55.94617106010455
            ],
            [
              -3.2008920969548478,
              55.94617106010455
            ],
            [
              -3.2008920969548478,
              55.94617829507841
            ],
            [
              -3.2009145558927647,
              55.94617829507841
            ],
            [
              -3.2009145558927647,
              55.94617106010455
            ]
          ]
        ]
      },
      "properties": {
        "unit_id": "94823a8d-2bd3-596f-89dc-4f09828c3eec",
        "level_id": "b174c278-cd7e-43cf-b72f-95121b2c29fb",
        "name": {
          "en": "EGC-04"
        },
        "alt_name": null,
        "category": "desk",
        "labels": [
          {
            "value": "EGC-04",
            "type": "fixture_name"
          }
        ],
        "accessibility": null
      }
    },
    {
      "type": "Feature",
      "feature_type": "fixture",
      "id": "65b897f7-60bc-5681-8c8e-485396d58337",
      "geometry": {
        "type": "Polygon",
        "coordinates": [
          [
            [
              -3.20110706107491,
              55.946213565575995
            ],
            [
              -3.201084602136993,
              55.946213565575995
            ],
            [
              -3.201084602136993,
              55.94622080054986
            ],
            [
              -3.20110706107491,
              55.94622080054986
            ],
            [
              -3.20110706107491,
              55.946213565575995
            ]
          ]
        ]
      },
      "properties": {
        "unit_id": "8633b485-e847-5189-972d-7f8971067214",
        "level_id": "b174c278-cd7e-43cf-b72f-95121b2c29fb",
        "name": {
          "en": "EGC-05"
        },
        "alt_name": null,
        "category": "desk",
        "labels": [
          {
            "value": "EGC-05",
            "type": "fixture_name"
          }
        ],
        "accessibility": null
      }
    },
    {
      "type": "Feature",
      "feature_type": "fixture",
      "id": "2cd00193-e370-56d8-8c47-48ca6543d103",
      "geometry": {
        "type": "Polygon",
        "coordinates": [
          [
            [
              -3.201363734651103,
              55.94608333604645
            ],
            [
              -3.2013412757131863,
              55.94608333604645
            ],
            [
              -3.2013412757131863,
              55.946090571020314
            ],
            [
              -3.201363734651103,
              55.946090571020314
            ],
            [
              -3.201363734651103,
              55.94608333604645
            ]
          ]
        ]
      },
      "properties": {
        "unit_id": "ba9370b4-0473-5a15-bd99-7a898668ceae",
        "level_id": "b174c278-cd7e-43cf-b72f-95121b2c29fb",
        "name": {
          "en": "EGC-01"
        },
        "alt_name": null,
        "category": "desk",
        "labels": [
          {
            "value": "EGC-01",
            "type": "fixture_name"
          }
        ],
        "accessibility": null
      }
    },
    {
      "type": "Feature",
      "feature_type": "fixture",
      "id": "3beda31e-3472-590e-8791-c580b3a0cf96",
      "geometry": {
        "type": "Polygon",
        "coordinates": [
          [
            [
              -3.201235397863006,
              55.94608333604645
            ],
            [
              -3.2012129389250896,
              55.94608333604645
            ],
            [
              -3.2012129389250896,
              55.946090571020314
            ],
            [
              -3.201235397863006,
              55.946090571020314
            ],
            [
              -3.201235397863006,
              55.94608333604645
            ]
          ]
        ]
      },
      "properties": {
        "unit_id": "8d1ce517-e246-5440-a325-6b1d4913ad4a",
        "level_id": "b174c278-cd7e-43cf-b72f-95121b2c29fb",
        "name": {
          "en": "EGC-02"
        },
        "alt_name": null,
        "category": "desk",
        "labels": [
          {
            "value": "EGC-02",
            "type": "fixture_name"
          }
        ],
        "accessibility": null
      }
    },
    {
      "type": "Feature",
      "feature_type": "fixture",
      "id": "f3b92ee6-c8b3-5957-b3c5-f874dbda4be5",
      "geometry": {
        "type": "Polygon",
        "coordinates": [
          [
            [
              -3.20110706107491,
              55.94608333604645
            ],
            [
              -3.201084602136993,
              55.94608333604645
            ],
            [
              -3.201084602136993,
              55.946090571020314
            ],
            [
              -3.20110706107491,
              55.946090571020314
            ],
            [
              -3.20110706107491,
              55.94608333604645
            ]
          ]
        ]
      },
      "properties": {
        "unit_id": "370352f4-18eb-5106-b7cb-8189d9c888e1",
        "level_id": "b174c278-cd7e-43cf-b72f-95121b2c29fb",
        "name": {
          "en": "EGC-03"
        },
        "alt_name": null,
        "category": "desk",
        "labels": [
          {
            "value": "EGC-03",
            "type": "fixture_name"
          }
        ],
        "accessibility": null
      }
    },
    {
      "type": "Feature",
      "feature_type": "fixture",
      "id": "2d748c7d-35b6-5e75-ae5b-b102538dddef",
      "geometry": {
        "type": "Polygon",
        "coordinates": [
          [
            [
              -3.2009787242868133,
              55.94608333604645
            ],
            [
              -3.2009562653488963,
              55.94608333604645
            ],
            [
              -3.2009562653488963,
              55.946090571020314
            ],
            [
              -3.2009787242868133,
              55.946090571020314
            ],
            [
              -3.2009787242868133,
              55.94608333604645
            ]
          ]
        ]
      },
      "properties": {
        "unit_id": "db28265a-cdba-5c3b-b593-5640269930a6",
        "level_id": "b174c278-cd7e-43cf-b72f-95121b2c29fb",
        "name": {
          "en": "EGC-04"
        },
        "alt_name": null,
        "category": "desk",
        "labels": [
          {
            "value": "EGC-04",
            "type": "fixture_name"
          }
        ],
        "accessibility": null
      }
    },
    {
      "type": "Feature",
      "feature_type": "fixture",
      "id": "220a3591-98a6-5a3f-8cca-084cfd879e18",
      "geometry": {
        "type": "Polygon",
        "coordinates": [
          [
            [
              -3.201363734651103,
              55.946105945339774
            ],
            [
              -3.2013412757131863,
              55.946105945339774
            ],
            [
              -3.2013412757131863,
              55.94611318031364
            ],
            [
              -3.201363734651103,
              55.94611318031364
            ],
            [
              -3.201363734651103,
              55.946105945339774
            ]
          ]
        ]
      },
      "properties": {
        "unit_id": "1a07b3c2-1ea3-59dc-baa5-ab04928e959b",
        "level_id": "b174c278-cd7e-43cf-b72f-95121b2c29fb",
        "name": {
          "en": "EGC-05"
        },
        "alt_name": null,
        "category": "desk",
        "labels": [
          {
            "value": "EGC-05",
            "type": "fixture_name"
          }
        ],
        "accessibility": null
      }
    },
    {
      "type": "Feature",
      "feature_type": "fixture",
      "id": "6edf02cb-04ad-5db3-8149-4da3fe512e88",
      "geometry": {
        "type": "Polygon",
        "coordinates": [
          [
            [
              -3.201235397863006,
              55.946105945339774
            ],
            [
              -3.2012129389250896,
              55.946105945339774
            ],
            [
              -3.2012129389250896,
              55.94611318031364
            ],
            [
              -3.201235397863006,
              55.94611318031364
            ],
            [
              -3.201235397863006,
              55.946105945339774
            ]
          ]
        ]
      },
      "properties": {
        "unit_id": "99a007e5-cf6c-5a36-b15c-c597d596be0c",
        "level_id": "b174c278-cd7e-43cf-b72f-95121b2c29fb",
        "name": {
          "en": "EGC-06"
        },
        "alt_name": null,
        "category": "desk",
        "labels": [
          {
            "value": "EGC-06",
            "type": "fixture_name"
          }
        ],
        "accessibility": null
      }
    },
    {
      "type": "Feature",
      "feature_type": "fixture",
      "id": "6ef6f4f8-19eb-5ce9-a979-4796cf992202",
      "geometry": {
        "type": "Polygon",
        "coordinates": [
          [
            [
              -3.20110706107491,
              55.946105945339774
            ],
            [
              -3.201084602136993,
              55.946105945339774
            ],
            [
              -3.201084602136993,
              55.94611318031364
            ],
            [
              -3.20110706107491,
              55.94611318031364
            ],
            [
              -3.20110706107491,
              55.946105945339774
            ]
          ]
        ]
      },
      "properties": {
        "unit_id": "88c913a9-7a4b-52b7-a3b8-a738e0bec8a4",
        "level_id": "b174c278-cd7e-43cf-b72f-95121b2c29fb",
        "name": {
          "en": "EGC-07"
        },
        "alt_name": null,
        "category": "desk",
        "labels": [
          {
            "value": "EGC-07",
            "type": "fixture_name"
          }
        ],
        "accessibility": null
      }
    },
    {
      "type": "Feature",
      "feature_type": "fixture",
      "id": "c43752c6-2304-59d2-9a50-9e97d0032698",
      "geometry": {
        "type": "Polygon",
        "coordinates": [
          [
            [
              -3.2009787242868133,
              55.946105945339774
            ],
            [
              -3.2009562653488963,
              55.946105945339774
            ],
            [
              -3.2009562653488963,
              55.94611318031364
            ],
            [
              -3.2009787242868133,
              55.94611318031364
            ],
            [
              -3.2009787242868133,
              55.946105945339774
            ]
          ]
        ]
      },
      "properties": {
        "unit_id": "abcbf7b6-1eee-5c12-89c5-2a66fdf1033a",
        "level_id": "b174c278-cd7e-43cf-b72f-95121b2c29fb",
        "name": {
          "en": "EGC-08"
        },
        "alt_name": null,
        "category": "desk",
        "labels": [
          {
            "value": "EGC-08",
            "type": "fixture_name"
          }
        ],
        "accessibility": null
      }
    },
    {
      "type": "Feature",
      "feature_type": "fixture",
      "id": "8da5141c-bdcd-5e1e-8a25-41cc484b7d89",
      "geometry": {
        "type": "Polygon",
        "coordinates": [
          [
            [
              -3.201363734651103,
              55.94628139345597
            ],
            [
              -3.2013412757131863,
              55.94628139345597
            ],
            [
              -3.2013412757131863,
              55.94628862842983
            ],
            [
              -3.201363734651103,
              55.94628862842983
            ],
            [
              -3.201363734651103,
              55.94628139345597
            ]
          ]
        ]
      },
      "properties": {
        "unit_id": "5ecaa9e4-563f-5f7f-87ff-d43d48db5be1",
        "level_id": "1689f5e3-9244-45fa-b8f1-ca21f8a36a16",
        "name": {
          "en": "EFW-01"
        },
        "alt_name": null,
        "category": "desk",
        "labels": [
          {
            "value": "EFW-01",
            "type": "fixture_name"
          }
        ],
        "accessibility": null
      }
    },
    {
      "type": "Feature",
      "feature_type": "fixture",
      "id": "5394b5ac-2c31-5dcc-8ff2-d32378dbd8b6",
      "geometry": {
        "type": "Polygon",
        "coordinates": [
          [
            [
              -3.201235397863006,
              55.94628139345597
            ],
            [
              -3.2012129389250896,
              55.94628139345597
            ],
            [
              -3.2012129389250896,
              55.94628862842983
            ],
            [
              -3.201235397863006,
              55.94628862842983
            ],
            [
              -3.201235397863006,
              55.94628139345597
            ]
          ]
        ]
      },
      "properties": {
        "unit_id": "c78fa33a-77f5-5251-bc6c-836b96c8c7b2",
        "level_id": "1689f5e3-9244-45fa-b8f1-ca21f8a36a16",
        "name": {
          "en": "EFW-02"
        },
        "alt_name": null,
        "category": "desk",
        "labels": [
          {
            "value": "EFW-02",
            "type": "fixture_name"
          }
        ],
        "accessibility": null
      }
    },
    {
      "type": "Feature",
      "feature_type": "fixture",
      "id": "9309dfcc-e852-5b01-a9c6-86df6d68ccb8",
      "geometry": {
        "type": "Polygon",
        "coordinates": [
          [
            [
              -3.20110706107491,
              55.94628139345597
            ],
            [
              -3.201084602136993,
              55.94628139345597
            ],
            [
              -3.201084602136993,
              55.94628862842983
            ],
            [
              -3.20110706107491,
              55.94628862842983
            ],
            [
              -3.20110706107491,
              55.94628139345597
            ]
          ]
        ]
      },
      "properties": {
        "unit_id": "3c59a861-c4bd-5ec2-b2cd-fe7661849a4f",
        "level_id": "1689f5e3-9244-45fa-b8f1-ca21f8a36a16",
        "name": {
          "en": "EFW-03"
        },
        "alt_name": null,
        "category": "desk",
        "labels": [
          {
            "value": "EFW-03",
            "type": "fixture_name"
          }
        ],
        "accessibility": null
      }
    },
    {
      "type": "Feature",
      "feature_type": "fixture",
      "id": "aeba891d-411d-52a9-8542-1b67aaac10c3",
      "geometry": {
        "type": "Polygon",
        "coordinates": [
          [
            [
              -3.2009787242868133,
              55.94628139345597
            ],
            [
              -3.2009562653488963,
              55.94628139345597
            ],
            [
              -3.2009562653488963,
              55.94628862842983
            ],
            [
              -3.2009787242868133,
              55.94628862842983
            ],
            [
              -3.2009787242868133,
              55.94628139345597
            ]
          ]
        ]
      },
      "properties": {
        "unit_id": "dbcb54a2-e2dd-50d6-8733-c0730d600e7a",
        "level_id": "1689f5e3-9244-45fa-b8f1-ca21f8a36a16",
        "name": {
          "en": "EFW-04"
        },
        "alt_name": null,
        "category": "desk",
        "labels": [
          {
            "value": "EFW-04",
            "type": "fixture_name"
          }
        ],
        "accessibility": null
      }
    },
    {
      "type": "Feature",
      "feature_type": "fixture",
      "id": "5f4fcbf7-d8ad-5981-a032-549689f8ffe8",
      "geometry": {
        "type": "Polygon",
        "coordinates": [
          [
            [
              -3.201363734651103,
              55.94630671586449
            ],
            [
              -3.2013412757131863,
              55.94630671586449
            ],
            [
              -3.2013412757131863,
              55.94631395083835
            ],
            [
              -3.201363734651103,
              55.94631395083835
            ],
            [
              -3.201363734651103,
              55.94630671586449
            ]
          ]
        ]
      },
      "properties": {
        "unit_id": "7fc3a652-3dfd-530f-8fe1-47d5bfb05b1e",
        "level_id": "1689f5e3-9244-45fa-b8f1-ca21f8a36a16",
        "name": {
          "en": "EFW-05"
        },
        "alt_name": null,
        "category": "desk",
        "labels": [
          {
            "value": "EFW-05",
            "type": "fixture_name"
          }
        ],
        "accessibility": null
      }
    },
    {
      "type": "Feature",
      "feature_type": "fixture",
      "id": "d0b84a7d-d77d-5ad3-b6dc-4ef05f65b57a",
      "geometry": {
        "type": "Polygon",
        "coordinates": [
          [
            [
              -3.2014279030451513,
              55.94617106010455
            ],
            [
              -3.2014054441072344,
              55.94617106010455
            ],
            [
              -3.2014054441072344,
              55.94617829507841
            ],
            [
              -3.2014279030451513,
              55.94617829507841
            ],
            [
              -3.2014279030451513,
              55.94617106010455
            ]
          ]
        ]
      },
      "properties": {
        "unit_id": "b133b848-2be5-557d-a1c8-07e7983a5e9f",
        "level_id": "1689f5e3-9244-45fa-b8f1-ca21f8a36a16",
        "name": {
          "en": "EFQ-01"
        },
        "alt_name": null,
        "category": "desk",
        "labels": [
          {
            "value": "EFQ-01",
            "type": "fixture_name"
          }
        ],
        "accessibility": null
      }
    },
    {
      "type": "Feature",
      "feature_type": "fixture",
      "id": "d3c72546-1b6b-5f28-9d3b-46b4d22f1528",
      "geometry": {
        "type": "Polygon",
        "coordinates": [
          [
            [
              -3.201363734651103,
              55.94617106010455
            ],
            [
              -3.2013412757131863,
              55.94617106010455
            ],
            [
              -3.2013412757131863,
              55.94617829507841
            ],
            [
              -3.201363734651103,
              55.94617829507841
            ],
            [
              -3.201363734651103,
              55.94617106010455
            ]
          ]
        ]
      },
      "properties": {
        "unit_id": "6bf6ae05-2713-5e3b-8521-1747ada6b8e4",
        "level_id": "1689f5e3-9244-45fa-b8f1-ca21f8a36a16",
        "name": {
          "en": "EFQ-02"
        },
        "alt_name": null,
        "category": "desk",
        "labels": [
          {
            "value": "EFQ-02",
            "type": "fixture_name"
          }
        ],
        "accessibility": null
      }
    },
    {
      "type": "Feature",
      "feature_type": "fixture",
      "id": "a69990a5-a350-5f1d-a860-ab3dd1b54207",
      "geometry": {
        "type": "Polygon",
        "coordinates": [
          [
            [
              -3.2012995662570547,
              55.94617106010455
            ],
            [
              -3.2012771073191377,
              55.94617106010455
            ],
            [
              -3.2012771073191377,
              55.94617829507841
            ],
            [
              -3.2012995662570547,
              55.94617829507841
            ],
            [
              -3.2012995662570547,
              55.94617106010455
            ]
          ]
        ]
      },
      "properties": {
        "unit_id": "a60e8c4a-8002-5f57-90bc-6294cb9717db",
        "level_id": "1689f5e3-9244-45fa-b8f1-ca21f8a36a16",
        "name": {
          "en": "EFQ-03"
        },
        "alt_name": null,
        "category": "desk",
        "labels": [
          {
            "value": "EFQ-03",
            "type": "fixture_name"
          }
        ],
        "accessibility": null
      }
    },
    {
      "type": "Feature",
      "feature_type": "fixture",
      "id": "14d6998c-6e18-5d2f-bd48-edbeb04eaebe",
      "geometry": {
        "type": "Polygon",
        "coordinates": [
          [
            [
              -3.201235397863006,
              55.94617106010455
            ],
            [
              -3.2012129389250896,
              55.94617106010455
            ],
            [
              -3.2012129389250896,
              55.94617829507841
            ],
            [
              -3.201235397863006,
              55.94617829507841
            ],
            [
              -3.201235397863006,
              55.94617106010455
            ]
          ]
        ]
      },
      "properties": {
        "unit_id": "3f527010-6186-55e4-82ce-3da3e8d9f8f7",
        "level_id": "1689f5e3-9244-45fa-b8f1-ca21f8a36a16",
        "name": {
          "en": "EFQ-04"
        },
        "alt_name": null,
        "category": "desk",
        "labels": [
          {
            "value": "EFQ-04",
            "type": "fixture_name"
          }
        ],
        "accessibility": null
      }
    },
    {
      "type": "Feature",
      "feature_type": "fixture",
      "id": "cfc3650b-29d3-50e0-b547-67c0e61c77a6",
      "geometry": {
        "type": "Polygon",
        "coordinates": [
          [
            [
              -3.2014279030451513,
              55.946213565575995
            ],
            [
              -3.2014054441072344,
              55.946213565575995
            ],
            [
              -3.2014054441072344,
              55.94622080054986
            ],
            [
              -3.2014279030451513,
              55.94622080054986
            ],
            [
              -3.2014279030451513,
              55.946213565575995
            ]
          ]
        ]
      },
      "properties": {
        "unit_id": "b19421a2-211f-56a7-9b32-7bc234cd3873",
        "level_id": "1689f5e3-9244-45fa-b8f1-ca21f8a36a16",
        "name": {
          "en": "EFQ-05"
        },
        "alt_name": null,
        "category": "desk",
        "labels": [
          {
            "value": "EFQ-05",
            "type": "fixture_name"
          }
        ],
        "accessibility": null
      }
    },
    {
      "type": "Feature",
      "feature_type": "fixture",
      "id": "899eaae4-f2ae-5ca5-9e9f-2475f21982c2",
      "geometry": {
        "type": "Polygon",
        "coordinates": [
          [
            [
              -3.20110706107491,
              55.94617106010455
            ],
            [
              -3.201084602136993,
              55.94617106010455
            ],
            [
              -3.201084602136993,
              55.94617829507841
            ],
            [
              -3.20110706107491,
              55.94617829507841
            ],
            [
              -3.20110706107491,
              55.94617106010455
            ]
          ]
        ]
      },
      "properties": {
        "unit_id": "4632ebd0-81bb-55c9-a61c-9a0fe187d6cb",
        "level_id": "1689f5e3-9244-45fa-b8f1-ca21f8a36a16",
        "name": {
          "en": "EFC-01"
        },
        "alt_name": null,
        "category": "desk",
        "labels": [
          {
            "value": "EFC-01",
            "type": "fixture_name"
          }
        ],
        "accessibility": null
      }
    },
    {
      "type": "Feature",
      "feature_type": "fixture",
      "id": "3a7626b4-30df-535e-a338-daaf1230f7ed",
      "geometry": {
        "type": "Polygon",
        "coordinates": [
          [
            [
              -3.2010428926808614,
              55.94617106010455
            ],
            [
              -3.2010204337429444,
              55.94617106010455
            ],
            [
              -3.2010204337429444,
              55.94617829507841
            ],
            [
              -3.2010428926808614,
              55.94617829507841
            ],
            [
              -3.2010428926808614,
              55.94617106010455
            ]
          ]
        ]
      },
      "properties": {
        "unit_id": "68363f84-6297-59ad-9e8d-3f628d81b396",
        "level_id": "1689f5e3-9244-45fa-b8f1-ca21f8a36a16",
        "name": {
          "en": "EFC-02"
        },
        "alt_name": null,
        "category": "desk",
        "labels": [
          {
            "value": "EFC-02",
            "type": "fixture_name"
          }
        ],
        "accessibility": null
      }
    },
    {
      "type": "Feature",
      "feature_type": "fixture",
      "id": "6d5f1957-47bf-5cdd-bf96-baa6ff8fcd28",
      "geometry": {
        "type": "Polygon",
        "coordinates": [
          [
            [
              -3.2009787242868133,
              55.94617106010455
            ],
            [
              -3.2009562653488963,
              55.94617106010455
            ],
            [
              -3.2009562653488963,
              55.94617829507841
            ],
            [
              -3.2009787242868133,
              55.94617829507841
            ],
            [
              -3.2009787242868133,
              55.94617106010455
            ]
          ]
        ]
      },
      "properties": {
        "unit_id": "4aea8d48-6910-58e8-b998-2da45d228edf",
        "level_id": "1689f5e3-9244-45fa-b8f1-ca21f8a36a16",
        "name": {
          "en": "EFC-03"
        },
        "alt_name": null,
        "category": "desk",
        "labels": [
          {
            "value": "EFC-03",
            "type": "fixture_name"
          }
        ],
        "accessibility": null
      }
    },
    {
      "type": "Feature",
      "feature_type": "fixture",
      "id": "5aada5a2-e131-5c08-b869-6e070f9f8285",
      "geometry": {
        "type": "Polygon",
        "coordinates": [
          [
            [
              -3.2009145558927647,
              55.94617106010455
            ],
            [
              -3.2008920969548478,
              55.94617106010455
            ],
            [
              -3.2008920969548478,
              55.94617829507841
            ],
            [
              -3.2009145558927647,
              55.94617829507841
            ],
            [
              -3.2009145558927647,
              55.94617106010455
            ]
          ]
        ]
      },
      "properties": {
        "unit_id": "133a2afa-2db4-5377-b453-585180a63f02",
        "level_id": "1689f5e3-9244-45fa-b8f1-ca21f8a36a16",
        "name": {
          "en": "EFC-04"
        },
        "alt_name": null,
        "category": "desk",
        "labels": [
          {
            "value": "EFC-04",
            "type": "fixture_name"
          }
        ],
        "accessibility": null
      }
    },
    {
      "type": "Feature",
      "feature_type": "fixture",
      "id": "ca26f05d-fad8-55ac-b2cd-2415d3db7961",
      "geometry": {
        "type": "Polygon",
        "coordinates": [
          [
            [
              -3.20110706107491,
              55.946213565575995
            ],
            [
              -3.201084602136993,
              55.946213565575995
            ],
            [
              -3.201084602136993,
              55.94622080054986
            ],
            [
              -3.20110706107491,
              55.94622080054986
            ],
            [
              -3.20110706107491,
              55.946213565575995
            ]
          ]
        ]
      },
      "properties": {
        "unit_id": "81b9cebf-953f-5b03-a0fb-417ca9bba67e",
        "level_id": "1689f5e3-9244-45fa-b8f1-ca21f8a36a16",
        "name": {
          "en": "EFC-05"
        },
        "alt_name": null,
        "category": "desk",
        "labels": [
          {
            "value": "EFC-05",
            "type": "fixture_name"
          }
        ],
        "accessibility": null
      }
    },
    {
      "type": "Feature",
      "feature_type": "fixture",
      "id": "3ce2a88f-3791-52d1-92a4-9beb02d0e73d",
      "geometry": {
        "type": "Polygon",
        "coordinates": [
          [
            [
              -3.201363734651103,
              55.94608333604645
            ],
            [
              -3.2013412757131863,
              55.94608333604645
            ],
            [
              -3.2013412757131863,
              55.946090571020314
            ],
            [
              -3.201363734651103,
              55.946090571020314
            ],
            [
              -3.201363734651103,
              55.94608333604645
            ]
          ]
        ]
      },
      "properties": {
        "unit_id": "ec1428c9-872b-54bd-a262-09f7a81830a7",
        "level_id": "1689f5e3-9244-45fa-b8f1-ca21f8a36a16",
        "name": {
          "en": "EFC-01"
        },
        "alt_name": null,
        "category": "desk",
        "labels": [
          {
            "value": "EFC-01",
            "type": "fixture_name"
          }
        ],
        "accessibility": null
      }
    },
    {
      "type": "Feature",
      "feature_type": "fixture",
      "id": "d665fc21-f7a7-5f71-bd36-33a539baab4c",
      "geometry": {
        "type": "Polygon",
        "coordinates": [
          [
            [
              -3.201235397863006,
              55.94608333604645
            ],
            [
              -3.2012129389250896,
              55.94608333604645
            ],
            [
              -3.2012129389250896,
              55.946090571020314
            ],
            [
              -3.201235397863006,
              55.946090571020314
            ],
            [
              -3.201235397863006,
              55.94608333604645
            ]
          ]
        ]
      },
      "properties": {
        "unit_id": "3f608cd8-0390-5a05-b12f-506ba4bb9c06",
        "level_id": "1689f5e3-9244-45fa-b8f1-ca21f8a36a16",
        "name": {
          "en": "EFC-02"
        },
        "alt_name": null,
        "category": "desk",
        "labels": [
          {
            "value": "EFC-02",
            "type": "fixture_name"
          }
        ],
        "accessibility": null
      }
    },
    {
      "type": "Feature",
      "feature_type": "fixture",
      "id": "8f83bae7-49fa-5853-8450-58a59a16c8a1",
      "geometry": {
        "type": "Polygon",
        "coordinates": [
          [
            [
              -3.20110706107491,
              55.94608333604645
            ],
            [
              -3.201084602136993,
              55.94608333604645
            ],
            [
              -3.201084602136993,
              55.946090571020314
            ],
            [
              -3.20110706107491,
              55.946090571020314
            ],
            [
              -3.20110706107491,
              55.94608333604645
            ]
          ]
        ]
      },
      "properties": {
        "unit_id": "18192eee-8e95-5306-bbe5-0a48358fb39d",
        "level_id": "1689f5e3-9244-45fa-b8f1-ca21f8a36a16",
        "name": {
          "en": "EFC-03"
        },
        "alt_name": null,
        "category": "desk",
        "labels": [
          {
            "value": "EFC-03",
            "type": "fixture_name"
          }
        ],
        "accessibility": null
      }
    },
    {
      "type": "Feature",
      "feature_type": "fixture",
      "id": "c54948c5-ca83-53bb-b602-d525e5e87c1f",
      "geometry": {
        "type": "Polygon",
        "coordinates": [
          [
            [
              -3.2009787242868133,
              55.94608333604645
            ],
            [
              -3.2009562653488963,
              55.94608333604645
            ],
            [
              -3.2009562653488963,
              55.946090571020314
            ],
            [
              -3.2009787242868133,
              55.946090571020314
            ],
            [
              -3.2009787242868133,
              55.94608333604645
            ]
          ]
        ]
      },
      "properties": {
        "unit_id": "eb210e41-b519-523a-95fd-77faf5cbd4d8",
        "level_id": "1689f5e3-9244-45fa-b8f1-ca21f8a36a16",
        "name": {
          "en": "EFC-04"
        },
        "alt_name": null,
        "category": "desk",
        "labels": [
          {
            "value": "EFC-04",
            "type": "fixture_name"
          }
        ],
        "accessibility": null
      }
    },
    {
      "type": "Feature",
      "feature_type": "fixture",
      "id": "c0d855e0-02c6-58c3-b64e-d5d7a79e4b92",
      "geometry": {
        "type": "Polygon",
        "coordinates": [
          [
            [
              -3.201363734651103,
              55.946105945339774
            ],
            [
              -3.2013412757131863,
              55.946105945339774
            ],
            [
              -3.2013412757131863,
              55.94611318031364
            ],
            [
              -3.201363734651103,
              55.94611318031364
            ],
            [
              -3.201363734651103,
              55.946105945339774
            ]
          ]
        ]
      },
      "properties": {
        "unit_id": "64d86266-b6a1-5e5c-ab7d-76840ff2180f",
        "level_id": "1689f5e3-9244-45fa-b8f1-ca21f8a36a16",
        "name": {
          "en": "EFC-05"
        },
        "alt_name": null,
        "category": "desk",
        "labels": [
          {
            "value": "EFC-05",
            "type": "fixture_name"
          }
        ],
        "accessibility": null
      }
    },
    {
      "type": "Feature",
      "feature_type": "fixture",
      "id": "8b582d9a-5c58-58b5-89cb-642c6bbf4f7a",
      "geometry": {
        "type": "Polygon",
        "coordinates": [
          [
            [
              -3.201235397863006,
              55.946105945339774
            ],
            [
              -3.2012129389250896,
              55.946105945339774
            ],
            [
              -3.2012129389250896,
              55.94611318031364
            ],
            [
              -3.201235397863006,
              55.94611318031364
            ],
            [
              -3.201235397863006,
              55.946105945339774
            ]
          ]
        ]
      },
      "properties": {
        "unit_id": "bef0ef4a-f4c8-50a2-8313-86ccf789d348",
        "level_id": "1689f5e3-9244-45fa-b8f1-ca21f8a36a16",
        "name": {
          "en": "EFC-06"
        },
        "alt_name": null,
        "category": "desk",
        "labels": [
          {
            "value": "EFC-06",
            "type": "fixture_name"
          }
        ],
        "accessibility": null
      }
    },
    {
      "type": "Feature",
      "feature_type": "fixture",
      "id": "4811912d-a5af-5aa3-8fab-86fa34d6ba56",
      "geometry": {
        "type": "Polygon",
        "coordinates": [
          [
            [
              -3.20110706107491,
              55.946105945339774
            ],
            [
              -3.201084602136993,
              55.946105945339774
            ],
            [
              -3.201084602136993,
              55.94611318031364
            ],
            [
              -3.20110706107491,
              55.94611318031364
            ],
            [
              -3.20110706107491,
              55.946105945339774
            ]
          ]
        ]
      },
      "properties": {
        "unit_id": "ebe4c650-5fba-56a6-950c-4be6be341964",
        "level_id": "1689f5e3-9244-45fa-b8f1-ca21f8a36a16",
        "name": {
          "en": "EFC-07"
        },
        "alt_name": null,
        "category": "desk",
        "labels": [
          {
            "value": "EFC-07",
            "type": "fixture_name"
          }
        ],
        "accessibility": null
      }
    },
    {
      "type": "Feature",
      "feature_type": "fixture",
      "id": "d96f51d6-5551-53a8-9e48-63576f0dc70d",
      "geometry": {
        "type": "Polygon",
        "coordinates": [
          [
            [
              -3.2009787242868133,
              55.946105945339774
            ],
            [
              -3.2009562653488963,
              55.946105945339774
            ],
            [
              -3.2009562653488963,
              55.94611318031364
            ],
            [
              -3.2009787242868133,
              55.94611318031364
            ],
            [
              -3.2009787242868133,
              55.946105945339774
            ]
          ]
        ]
      },
      "properties": {
        "unit_id": "01b1eb18-52c8-5105-bfc7-94a7aa0155b1",
        "level_id": "1689f5e3-9244-45fa-b8f1-ca21f8a36a16",
        "name": {
          "en": "EFC-08"
        },
        "alt_name": null,
        "category": "desk",
        "labels": [
          {
            "value": "EFC-08",
            "type": "fixture_name"
          }
        ],
        "accessibility": null
      }
    }
  ]
}