{
  "type": "FeatureCollection",
  "features": [
    {
      "type": "Feature",
      "feature_type": "footprint",
      "id": "7e023a01-edd0-5c4a-9de1-27ab24eaad70",
      "geometry": {
        "type": "Polygon",
        "coordinates": [
          [
            [
              -0.0200629558999733,
              51.50453651636008
            ],
            [
              -0.0191970441000267,
              51.50453651636008
            ],
            [
              -0.0191970441000267,
              51.50494348363991
            ],
            [
              -0.0200629558999733,
              51.50494348363991
            ],
            [
              -0.0200629558999733,
              51.50453651636008
            ]
          ]
        ]
      },
      "properties": {
        "building_ids": [
          "0c5f0af6-79d9-4f91-8eae-6a792f7bc13d"
        ],
        "name": {
          "en": "TheBank \u2014 London Footprint"
        },
        "alt_name": null,
        "category": "ground"
      }
    }
  ]
}