{
  "type": "FeatureCollection",
  "features": [
    {
      "type": "Feature",
      "feature_type": "level",
      "id": "14b03dbb-cfd1-46ac-a1ba-0488c2d5fcbd",
      "geometry": {
        "type": "Polygon",
        "coordinates": [
          [
            [
              -1.5474321916082985,
              53.795751734946734
            ],
            [
              -1.5467478083917017,
              53.795751734946734
            ],
            [
              -1.5467478083917017,
              53.79606826505327
            ],
            [
              -1.5474321916082985,
              53.79606826505327
            ],
            [
              -1.5474321916082985,
              53.795751734946734
            ]
          ]
        ]
      },
      "properties": {
        "building_ids": [
          "9d0934cb-b8c7-4dee-903a-e4313144ea11"
        ],
        "ordinal": 0,
        "name": {
          "en": "Ground Floor"
        },
        "short_name": {
          "en": "G"
        },
        "category": "unspecified",
        "alt_name": null,
        "accessibility": null,
        "restriction": null,
        "address": null
      }
    },
    {
      "type": "Feature",
      "feature_type": "level",
      "id": "8ff47977-2281-4fcf-a81b-8b60cf053aa9",
      "geometry": {
        "type": "Polygon",
        "coordinates": [
          [
            [
              -1.5474321916082985,
              53.795751734946734
            ],
            [
              -1.5467478083917017,
              53.795751734946734
            ],
            [
              -1.5467478083917017,
              53.79606826505327
            ],
            [
              -1.5474321916082985,
              53.79606826505327
            ],
            [
              -1.5474321916082985,
              53.795751734946734
            ]
          ]
        ]
      },
      "properties": {
        "building_ids": [
          "9d0934cb-b8c7-4dee-903a-e4313144ea11"
        ],
        "ordinal": 1,
        "name": {
          "en": "First Floor"
        },
        "short_name": {
          "en": "F"
        },
        "category": "unspecified",
        "alt_name": null,
        "accessibility": null,
        "restriction": null,
        "address": null
      }
    }
  ]
}